[{"OBJECT_NAME":"STARLINK-30872","OBJECT_ID":"2023-170V","EPOCH":"2026-03-09T23:40:20.980416","MEAN_MOTION":15.27564688,"ECCENTRICITY":0.00015487,"INCLINATION":43.0032,"RA_OF_ASC_NODE":50.6306,"ARG_OF_PERICENTER":279.0718,"MEAN_ANOMALY":80.9959,"EPHEMERIS_TYPE":0,"CLASSIFICATION_TYPE":"U","NORAD_CAT_ID":58225,"ELEMENT_SET_NO":999,"REV_AT_EPOCH":13201,"BSTAR":0.0001032739,"MEAN_MOTION_DOT":2.579e-5,"MEAN_MOTION_DDOT":0},{"OBJECT_NAME":"TIANMU-1 22","OBJECT_ID":"2023-208D","EPOCH":"2026-03-09T22:39:05.738688","MEAN_MOTION":15.29457749,"ECCENTRICITY":0.00031332,"INCLINATION":97.4379,"RA_OF_ASC_NODE":184.9419,"ARG_OF_PERICENTER":351.9312,"MEAN_ANOMALY":8.1877,"EPHEMERIS_TYPE":0,"CLASSIFICATION_TYPE":"U","NORAD_CAT_ID":58663,"ELEMENT_SET_NO":999,"REV_AT_EPOCH":12215,"BSTAR":0.00038239675,"MEAN_MOTION_DOT":0.00010851,"MEAN_MOTION_DDOT":0}]
